PANDORA
1 67395U 80229J   26064.99883102  .00000000  00000-0  37770-3 0    09
2 67395  97.8012  65.2821 0007003 104.4517 175.3475 14.87852357    07
